CZ-4B R/B               
1 28059U 03049C   18105.52086946  .00000017  00000-0  15926-4 0  9990
2 28059  98.5275   1.8757 0051065  45.6896  52.8302 14.52522890767564
CZ-2C R/B               
1 28222U 04012C   18104.86497319  .00000214  00000-0  17081-4 0  9992
2 28222  97.5689  61.5306 0046592 230.4117 182.2259 15.09668574766084
SL-16 R/B               
1 28353U 04021B   18104.60970661 -.00000122  00000-0 -38764-4 0  9996
2 28353  71.0012 166.3248 0002602 109.7174 250.4229 14.14209706714766
CZ-2C R/B               
1 28480U 04046B   18104.83006904 -.00000014  00000-0  98062-5 0  9996
2 28480  98.1784 186.4352 0142968  54.6364  53.0126 14.25670117697191
ARIANE 5 R/B            
1 28499U 04049H   18104.82641811  .00000028  00000-0  11085-4 0  9993
2 28499  98.0583 194.2875 0091432 322.0780 147.4435 14.79891933718563
CZ-2D R/B               
1 28738U 05024B   18105.11194919  .00000526  00000-0  34725-4 0  9997
2 28738  97.4611 140.4766 0013345  50.6769 309.5642 15.11500593701417
SUZAKU (ASTRO-EII)      
1 28773U 05025A   18105.44159489  .00000899  00000-0  40671-4 0  9996
2 28773  31.3820 135.3293 0004641 144.0147 216.0813 15.16465670703268
ALOS (DAICHI)           
1 28931U 06002A   18105.55852861  .00000160  00000-0  40123-4 0  9997
2 28931  97.8237 122.4147 0002603  79.0097 281.1404 14.62477990651657
H-2A R/B                
1 28932U 06002B   18104.84022091  .00000505  00000-0  52751-4 0  9996
2 28932  98.2284  45.2288 0090520  43.6474  16.5679 14.91675218662778
AKARI (ASTRO-F)         
1 28939U 06005A   18105.40032475  .00002304  00000-0  69862-4 0  9996
2 28939  98.2174 344.0705 0101412 215.8838 143.5561 15.30500122659319
RESURS-DK 1             
1 29228U 06021A   18105.40928582  .00000110  00000-0  15733-4 0  9990
2 29228  69.9365  49.0666 0007561 250.6506 109.3837 15.02305545653484
GENESIS 1               
1 29252U 06029A   18104.94224094  .00000410  00000-0  30530-4 0  9995
2 29252  64.5056  19.5949 0043725 298.7308  60.9424 15.17257821647521
CZ-4B R/B               
1 29507U 06046C   18105.22355909  .00000151  00000-0  16856-4 0  9996
2 29507  97.7795 117.9910 0046995 313.2366  46.4938 15.00244505626323
CZ-2C R/B               
1 31114U 07010B   18105.21820332  .00000005  00000-0  21269-4 0  9993
2 31114  98.3702 356.5949 0060818  59.0742 301.6395 14.19268647570368
COSMO-SKYMED 1          
1 31598U 07023A   18105.55343349  .00000372  00000-0  53336-4 0  9995
2 31598  97.8922 289.9800 0001758  90.9728 269.1704 14.82151736587239
GENESIS 2               
1 31789U 07028A   18105.20016254  .00000648  00000-0  43344-4 0  9990
2 31789  64.5047  57.8111 0010101 310.6828  49.3415 15.16501854594695
COSMOS 2428             
1 31792U 07029A   18105.47787091  .00000315  00000-0  19634-3 0  9993
2 31792  70.9548 137.9504 0010071 201.1651 158.9054 14.12494635556750
SL-16 R/B               
1 31793U 07029B   18105.43268956  .00000302  00000-0  18261-3 0  9995
2 31793  70.9736 114.2836 0001839 276.1906 186.2449 14.14399501557451
KORONAS-FOTON           
1 33504U 09003A   18104.94593125  .00000524  00000-0  26099-4 0  9990
2 33504  82.4395 293.0468 0020262 143.3270 216.9353 15.15127284507065
H-2A R/B                
1 38341U 12025E   18105.24200401  .00000183  00000-0  29130-4 0  9998
2 38341  98.4169 203.8529 0054492 266.3682  93.1298 14.83733922319663
CUSAT 2 & FALCON 9 R/B  
1 39271U 13055G   18104.86361629  .00009544  00000-0  23860-3 0  9995
2 39271  80.9700  37.0770 0618959  27.3434 335.8934 14.40842590236017
ALOS-2                  
1 39766U 14029A   18105.43381581  .00000183  00000-0  31399-4 0  9996
2 39766  97.9192 203.4209 0001637  84.9257 275.2133 14.79475620210294
SL-27 R/B               
1 40354U 14084B   18104.93536916  .00001143  00000-0  30277-4 0  9991
2 40354  74.7390 230.2637 0037702 100.6842 259.8618 15.38953598185864
ASTRO-H (HITOMI)        
1 41337U 16012A   18105.09624882  .00000292  00000-0  16855-4 0  9994
2 41337  31.0067   5.4595 0012389 143.2012 216.9475 14.98452463118247
TIANGONG-2              
1 41765U 16057A   18105.45531250  .00005402  00000-0  67082-4 0  9990
2 41765  42.7861 356.9354 0003769 207.4993 131.9513 15.60956521 90177
SHENZHOU-11 MODULE      
1 41868U 16061G   18104.92860569  .00010291  00000-0  82480-4 0  9999
2 41868  42.7958 335.1157 0001854 326.9586 159.8084 15.71143929 80326
